ONEWEB-0603             
1 54667U 22166AB  23344.74699203 -.00005090  00000+0 -12358-1 0  9996
2 54667  87.9258  67.0098 0002387 105.2424 254.8974 13.21848464 50013
ONEWEB-0604             
1 54668U 22166AC  23344.73437486 -.00012944  00000+0 -31390-1 0  9992
2 54668  87.9250  67.0051 0001514 105.4048 254.7254 13.21884310 49973
ONEWEB-0605             
1 54669U 22166AD  23344.72808520 -.00000099  00000+0 -27167-3 0  9990
2 54669  87.9279  67.0358 0002014  81.8348 278.3014 13.21824384 50042
ONEWEB-0606             
1 54670U 22166AE  23344.75015792 -.00000159  00000+0 -41553-3 0  9998
2 54670  87.9263  67.0174 0002109 114.8194 245.3159 13.21824206 50108
ONEWEB-0607             
1 54671U 22166AF  23344.79274188  .00000118  00000+0  25395-3 0  9998
2 54671  87.9252  66.9921 0001721  92.2049 267.9282 13.21825665 50086
ONEWEB-0608             
1 54672U 22166AG  23344.79905800  .00000052  00000+0  94853-4 0  9994
2 54672  87.9260  67.0008 0001911  75.8822 284.2524 13.21825774 50094
ONEWEB-0610             
1 54673U 22166AH  23344.78012916  .00000011  00000+0 -45442-5 0  9998
2 54673  87.9263  67.0050 0001845  91.8807 268.2538 13.21826052 49996
ONEWEB-0611             
1 54674U 22166AJ  23344.77380800  .00000061  00000+0  11647-3 0  9990
2 54674  87.9260  67.0070 0001687 119.7099 240.4203 13.21826907 49982
